{
  "type": "FeatureCollection",
  "name": "Synthetic_DY_Patil_Stadium_Site_Model",
  "crs": {
    "type": "name",
    "properties": {
      "name": "urn:ogc:def:crs:OGC:1.3:CRS84"
    }
  },
  "metadata": {
    "dataset_name": "Synthetic D. Y. Patil Stadium Site Spatial Structure",
    "venue_reference": "D. Y. Patil Stadium, Sector 7, Nerul, Navi Mumbai (approximate public morphology)",
    "synthetic": true,
    "demonstration_only": true,
    "accuracy_statement": "SYNTHETIC / DEMONSTRATION DATA for hackathon crowd analytics only. Not survey-grade.",
    "nominal_capacity": 45000,
    "center_coordinates": {
      "latitude": 19.0436,
      "longitude": 73.0248
    },
    "gate_count_in_scenario": 3,
    "gates_note": "Event scenario configuration using DUMMY_GATE_A, DUMMY_GATE_B, DUMMY_GATE_C. Does not claim to be the stadium's permanent total gate inventory."
  },
  "features": [
    {
      "type": "Feature",
      "properties": {
        "feature_id": "SITE_BOUNDARY_01",
        "name": "D. Y. Patil Stadium Site Boundary (Synthetic)",
        "category": "site_perimeter",
        "locality": "Sector 7, Nerul, Navi Mumbai",
        "nominal_capacity": 45000,
        "synthetic": true,
        "disclaimer": "SYNTHETIC DEMONSTRATION DATA. Approximated from public spatial reference."
      },
      "geometry": {
        "type": "Polygon",
        "coordinates": [
          [
            [
              73.021855,
              19.040815
            ],
            [
              73.02822,
              19.040815
            ],
            [
              73.02822,
              19.045936
            ],
            [
              73.021855,
              19.045936
            ],
            [
              73.021855,
              19.040815
            ]
          ]
        ]
      }
    },
    {
      "type": "Feature",
      "properties": {
        "feature_id": "CIRC_ROAD_01",
        "name": "External Perimeter Circulation Road & Emergency Loop",
        "category": "circulation_road",
        "width_meters": 14.0,
        "surface": "heavy_duty_asphalt",
        "access_type": "controlled_event_loop",
        "synthetic": true
      },
      "geometry": {
        "type": "Polygon",
        "coordinates": [
          [
            [
              73.026396,
              19.0436
            ],
            [
              73.026377,
              19.043816
            ],
            [
              73.026318,
              19.044027
            ],
            [
              73.026222,
              19.044228
            ],
            [
              73.026091,
              19.044413
            ],
            [
              73.025929,
              19.044578
            ],
            [
              73.025738,
              19.044719
            ],
            [
              73.025525,
              19.044833
            ],
            [
              73.025293,
              19.044916
            ],
            [
              73.02505,
              19.044966
            ],
            [
              73.0248,
              19.044983
            ],
            [
              73.02455,
              19.044966
            ],
            [
              73.024307,
              19.044916
            ],
            [
              73.024075,
              19.044833
            ],
            [
              73.023862,
              19.044719
            ],
            [
              73.023671,
              19.044578
            ],
            [
              73.023509,
              19.044413
            ],
            [
              73.023378,
              19.044228
            ],
            [
              73.023282,
              19.044027
            ],
            [
              73.023223,
              19.043816
            ],
            [
              73.023204,
              19.0436
            ],
            [
              73.023223,
              19.043384
            ],
            [
              73.023282,
              19.043173
            ],
            [
              73.023378,
              19.042972
            ],
            [
              73.023509,
              19.042787
            ],
            [
              73.023671,
              19.042622
            ],
            [
              73.023862,
              19.042481
            ],
            [
              73.024075,
              19.042367
            ],
            [
              73.024307,
              19.042284
            ],
            [
              73.02455,
              19.042234
            ],
            [
              73.0248,
              19.042217
            ],
            [
              73.02505,
              19.042234
            ],
            [
              73.025293,
              19.042284
            ],
            [
              73.025525,
              19.042367
            ],
            [
              73.025738,
              19.042481
            ],
            [
              73.025929,
              19.042622
            ],
            [
              73.026091,
              19.042787
            ],
            [
              73.026222,
              19.042972
            ],
            [
              73.026318,
              19.043173
            ],
            [
              73.026377,
              19.043384
            ],
            [
              73.026396,
              19.0436
            ]
          ],
          [
            [
              73.026187,
              19.0436
            ],
            [
              73.02617,
              19.043788
            ],
            [
              73.026119,
              19.043972
            ],
            [
              73.026036,
              19.044146
            ],
            [
              73.025922,
              19.044308
            ],
            [
              73.025781,
              19.044451
            ],
            [
              73.025615,
              19.044574
            ],
            [
              73.02543,
              19.044673
            ],
            [
              73.025229,
              19.044745
            ],
            [
              73.025017,
              19.044789
            ],
            [
              73.0248,
              19.044804
            ],
            [
              73.024583,
              19.044789
            ],
            [
              73.024371,
              19.044745
            ],
            [
              73.02417,
              19.044673
            ],
            [
              73.023985,
              19.044574
            ],
            [
              73.023819,
              19.044451
            ],
            [
              73.023678,
              19.044308
            ],
            [
              73.023564,
              19.044146
            ],
            [
              73.023481,
              19.043972
            ],
            [
              73.02343,
              19.043788
            ],
            [
              73.023413,
              19.0436
            ],
            [
              73.02343,
              19.043412
            ],
            [
              73.023481,
              19.043228
            ],
            [
              73.023564,
              19.043054
            ],
            [
              73.023678,
              19.042892
            ],
            [
              73.023819,
              19.042749
            ],
            [
              73.023985,
              19.042626
            ],
            [
              73.02417,
              19.042527
            ],
            [
              73.024371,
              19.042455
            ],
            [
              73.024583,
              19.042411
            ],
            [
              73.0248,
              19.042396
            ],
            [
              73.025017,
              19.042411
            ],
            [
              73.025229,
              19.042455
            ],
            [
              73.02543,
              19.042527
            ],
            [
              73.025615,
              19.042626
            ],
            [
              73.025781,
              19.042749
            ],
            [
              73.025922,
              19.042892
            ],
            [
              73.026036,
              19.043054
            ],
            [
              73.026119,
              19.043228
            ],
            [
              73.02617,
              19.043412
            ],
            [
              73.026187,
              19.0436
            ]
          ]
        ]
      }
    },
    {
      "type": "Feature",
      "properties": {
        "feature_id": "PLAZA_NORTH_01",
        "name": "North Public Arrival Plaza & Ingress Promenade",
        "category": "open_concourse",
        "flow_purpose": "general_crowd_holding_and_pacing",
        "capacity_pax": 18000,
        "synthetic": true
      },
      "geometry": {
        "type": "Polygon",
        "coordinates": [
          [
            [
              73.023755,
              19.044858
            ],
            [
              73.025845,
              19.044858
            ],
            [
              73.02613,
              19.045576
            ],
            [
              73.02347,
              19.045576
            ],
            [
              73.023755,
              19.044858
            ]
          ]
        ]
      }
    },
    {
      "type": "Feature",
      "properties": {
        "feature_id": "PLAZA_EAST_01",
        "name": "East Concourse & Fan Activation Plaza",
        "category": "open_concourse",
        "capacity_pax": 12000,
        "synthetic": true
      },
      "geometry": {
        "type": "Polygon",
        "coordinates": [
          [
            [
              73.026035,
              19.042881
            ],
            [
              73.026795,
              19.042881
            ],
            [
              73.026795,
              19.044319
            ],
            [
              73.026035,
              19.044319
            ],
            [
              73.026035,
              19.042881
            ]
          ]
        ]
      }
    },
    {
      "type": "Feature",
      "properties": {
        "feature_id": "PARK_EAST_01",
        "name": "East Public Parking & NMMT Transit Staging Complex",
        "category": "parking_and_transit",
        "bus_bays": 32,
        "car_bays": 1250,
        "two_wheeler_bays": 3500,
        "synthetic": true
      },
      "geometry": {
        "type": "Polygon",
        "coordinates": [
          [
            [
              73.02689,
              19.042612
            ],
            [
              73.027935,
              19.042612
            ],
            [
              73.027935,
              19.044408
            ],
            [
              73.02689,
              19.044408
            ],
            [
              73.02689,
              19.042612
            ]
          ]
        ]
      }
    },
    {
      "type": "Feature",
      "properties": {
        "feature_id": "PARK_WEST_01",
        "name": "West VIP, Official Team & Broadcast Parking Deck",
        "category": "parking_secure",
        "authorized_bays": 280,
        "broadcast_truck_bays": 12,
        "synthetic": true
      },
      "geometry": {
        "type": "Polygon",
        "coordinates": [
          [
            [
              73.02214,
              19.043061
            ],
            [
              73.023137,
              19.043061
            ],
            [
              73.023137,
              19.044139
            ],
            [
              73.02214,
              19.044139
            ],
            [
              73.02214,
              19.043061
            ]
          ]
        ]
      }
    },
    {
      "type": "Feature",
      "properties": {
        "feature_id": "SPORTS_PRACTICE_01",
        "name": "External Cricket Practice Pitches & Auxiliary Sports Ground",
        "category": "external_sports_campus",
        "pitches_count": 8,
        "synthetic": true
      },
      "geometry": {
        "type": "Polygon",
        "coordinates": [
          [
            [
              73.02518,
              19.041085
            ],
            [
              73.02727,
              19.041085
            ],
            [
              73.02727,
              19.042253
            ],
            [
              73.02518,
              19.042253
            ],
            [
              73.02518,
              19.041085
            ]
          ]
        ]
      }
    },
    {
      "type": "Feature",
      "properties": {
        "feature_id": "STAD_BOWL_01",
        "name": "Stadium Bowl Structure & Exterior Fa\u00e7ade",
        "category": "stadium_bowl",
        "dimensions_meters": "268m x 244m",
        "levels": 4,
        "synthetic": true
      },
      "geometry": {
        "type": "Polygon",
        "coordinates": [
          [
            [
              73.026073,
              19.0436
            ],
            [
              73.026057,
              19.043771
            ],
            [
              73.026011,
              19.043939
            ],
            [
              73.025934,
              19.044098
            ],
            [
              73.02583,
              19.044244
            ],
            [
              73.0257,
              19.044375
            ],
            [
              73.025548,
              19.044487
            ],
            [
              73.025378,
              19.044576
            ],
            [
              73.025193,
              19.044642
            ],
            [
              73.024999,
              19.044682
            ],
            [
              73.0248,
              19.044696
            ],
            [
              73.024601,
              19.044682
            ],
            [
              73.024407,
              19.044642
            ],
            [
              73.024222,
              19.044576
            ],
            [
              73.024052,
              19.044487
            ],
            [
              73.0239,
              19.044375
            ],
            [
              73.02377,
              19.044244
            ],
            [
              73.023666,
              19.044098
            ],
            [
              73.023589,
              19.043939
            ],
            [
              73.023543,
              19.043771
            ],
            [
              73.023527,
              19.0436
            ],
            [
              73.023543,
              19.043429
            ],
            [
              73.023589,
              19.043261
            ],
            [
              73.023666,
              19.043102
            ],
            [
              73.02377,
              19.042956
            ],
            [
              73.0239,
              19.042825
            ],
            [
              73.024052,
              19.042713
            ],
            [
              73.024222,
              19.042624
            ],
            [
              73.024407,
              19.042558
            ],
            [
              73.024601,
              19.042518
            ],
            [
              73.0248,
              19.042504
            ],
            [
              73.024999,
              19.042518
            ],
            [
              73.025193,
              19.042558
            ],
            [
              73.025378,
              19.042624
            ],
            [
              73.025548,
              19.042713
            ],
            [
              73.0257,
              19.042825
            ],
            [
              73.02583,
              19.042956
            ],
            [
              73.025934,
              19.043102
            ],
            [
              73.026011,
              19.043261
            ],
            [
              73.026057,
              19.043429
            ],
            [
              73.026073,
              19.0436
            ]
          ]
        ]
      }
    },
    {
      "type": "Feature",
      "properties": {
        "feature_id": "ROOF_TENSILE_01",
        "name": "Continuous Curved Tensile Cantilever Roof Structure",
        "category": "roof_structure",
        "material": "PTFE_coated_fiberglass_membrane",
        "coverage": "complete_spectator_bowl_weather_protection",
        "synthetic": true
      },
      "geometry": {
        "type": "Polygon",
        "coordinates": [
          [
            [
              73.026016,
              19.0436
            ],
            [
              73.026001,
              19.043763
            ],
            [
              73.025957,
              19.043922
            ],
            [
              73.025884,
              19.044073
            ],
            [
              73.025784,
              19.044212
            ],
            [
              73.02566,
              19.044337
            ],
            [
              73.025515,
              19.044443
            ],
            [
              73.025352,
              19.044528
            ],
            [
              73.025176,
              19.044591
            ],
            [
              73.02499,
              19.044629
            ],
            [
              73.0248,
              19.044642
            ],
            [
              73.02461,
              19.044629
            ],
            [
              73.024424,
              19.044591
            ],
            [
              73.024248,
              19.044528
            ],
            [
              73.024085,
              19.044443
            ],
            [
              73.02394,
              19.044337
            ],
            [
              73.023816,
              19.044212
            ],
            [
              73.023716,
              19.044073
            ],
            [
              73.023643,
              19.043922
            ],
            [
              73.023599,
              19.043763
            ],
            [
              73.023584,
              19.0436
            ],
            [
              73.023599,
              19.043437
            ],
            [
              73.023643,
              19.043278
            ],
            [
              73.023716,
              19.043127
            ],
            [
              73.023816,
              19.042988
            ],
            [
              73.02394,
              19.042863
            ],
            [
              73.024085,
              19.042757
            ],
            [
              73.024248,
              19.042672
            ],
            [
              73.024424,
              19.042609
            ],
            [
              73.02461,
              19.042571
            ],
            [
              73.0248,
              19.042558
            ],
            [
              73.02499,
              19.042571
            ],
            [
              73.025176,
              19.042609
            ],
            [
              73.025352,
              19.042672
            ],
            [
              73.025515,
              19.042757
            ],
            [
              73.02566,
              19.042863
            ],
            [
              73.025784,
              19.042988
            ],
            [
              73.025884,
              19.043127
            ],
            [
              73.025957,
              19.043278
            ],
            [
              73.026001,
              19.043437
            ],
            [
              73.026016,
              19.0436
            ]
          ],
          [
            [
              73.025703,
              19.0436
            ],
            [
              73.025692,
              19.043719
            ],
            [
              73.025658,
              19.043836
            ],
            [
              73.025604,
              19.043947
            ],
            [
              73.02553,
              19.044049
            ],
            [
              73.025438,
              19.04414
            ],
            [
              73.025331,
              19.044218
            ],
            [
              73.02521,
              19.04428
            ],
            [
              73.025079,
              19.044326
            ],
            [
              73.024941,
              19.044354
            ],
            [
              73.0248,
              19.044364
            ],
            [
              73.024659,
              19.044354
            ],
            [
              73.024521,
              19.044326
            ],
            [
              73.02439,
              19.04428
            ],
            [
              73.024269,
              19.044218
            ],
            [
              73.024162,
              19.04414
            ],
            [
              73.02407,
              19.044049
            ],
            [
              73.023996,
              19.043947
            ],
            [
              73.023942,
              19.043836
            ],
            [
              73.023908,
              19.043719
            ],
            [
              73.023897,
              19.0436
            ],
            [
              73.023908,
              19.043481
            ],
            [
              73.023942,
              19.043364
            ],
            [
              73.023996,
              19.043253
            ],
            [
              73.02407,
              19.043151
            ],
            [
              73.024162,
              19.04306
            ],
            [
              73.024269,
              19.042982
            ],
            [
              73.02439,
              19.04292
            ],
            [
              73.024521,
              19.042874
            ],
            [
              73.024659,
              19.042846
            ],
            [
              73.0248,
              19.042836
            ],
            [
              73.024941,
              19.042846
            ],
            [
              73.025079,
              19.042874
            ],
            [
              73.02521,
              19.04292
            ],
            [
              73.025331,
              19.042982
            ],
            [
              73.025438,
              19.04306
            ],
            [
              73.02553,
              19.043151
            ],
            [
              73.025604,
              19.043253
            ],
            [
              73.025658,
              19.043364
            ],
            [
              73.025692,
              19.043481
            ],
            [
              73.025703,
              19.0436
            ]
          ]
        ]
      }
    },
    {
      "type": "Feature",
      "properties": {
        "feature_id": "SEATING_BOWL_01",
        "name": "Spectator Seating Tiers & Concourse (45,000 Capacity)",
        "category": "spectator_seating",
        "total_capacity": 45000,
        "tiers": [
          "Lower Tier",
          "Club Level",
          "Upper Concourse"
        ],
        "evacuation_corridors": 16,
        "synthetic": true
      },
      "geometry": {
        "type": "Polygon",
        "coordinates": [
          [
            [
              73.025902,
              19.0436
            ],
            [
              73.025889,
              19.043748
            ],
            [
              73.025848,
              19.043891
            ],
            [
              73.025782,
              19.044028
            ],
            [
              73.025692,
              19.044154
            ],
            [
              73.025579,
              19.044267
            ],
            [
              73.025448,
              19.044363
            ],
            [
              73.0253,
              19.04444
            ],
            [
              73.025141,
              19.044497
            ],
            [
              73.024972,
              19.044532
            ],
            [
              73.0248,
              19.044543
            ],
            [
              73.024628,
              19.044532
            ],
            [
              73.024459,
              19.044497
            ],
            [
              73.0243,
              19.04444
            ],
            [
              73.024152,
              19.044363
            ],
            [
              73.024021,
              19.044267
            ],
            [
              73.023908,
              19.044154
            ],
            [
              73.023818,
              19.044028
            ],
            [
              73.023752,
              19.043891
            ],
            [
              73.023711,
              19.043748
            ],
            [
              73.023698,
              19.0436
            ],
            [
              73.023711,
              19.043452
            ],
            [
              73.023752,
              19.043309
            ],
            [
              73.023818,
              19.043172
            ],
            [
              73.023908,
              19.043046
            ],
            [
              73.024021,
              19.042933
            ],
            [
              73.024152,
              19.042837
            ],
            [
              73.0243,
              19.04276
            ],
            [
              73.024459,
              19.042703
            ],
            [
              73.024628,
              19.042668
            ],
            [
              73.0248,
              19.042657
            ],
            [
              73.024972,
              19.042668
            ],
            [
              73.025141,
              19.042703
            ],
            [
              73.0253,
              19.04276
            ],
            [
              73.025448,
              19.042837
            ],
            [
              73.025579,
              19.042933
            ],
            [
              73.025692,
              19.043046
            ],
            [
              73.025782,
              19.043172
            ],
            [
              73.025848,
              19.043309
            ],
            [
              73.025889,
              19.043452
            ],
            [
              73.025902,
              19.0436
            ]
          ],
          [
            [
              73.025446,
              19.0436
            ],
            [
              73.025436,
              19.043697
            ],
            [
              73.025407,
              19.04379
            ],
            [
              73.02536,
              19.043878
            ],
            [
              73.025295,
              19.043958
            ],
            [
              73.025215,
              19.044027
            ],
            [
              73.025123,
              19.044082
            ],
            [
              73.025021,
              19.044123
            ],
            [
              73.024912,
              19.044148
            ],
            [
              73.0248,
              19.044157
            ],
            [
              73.024688,
              19.044148
            ],
            [
              73.024579,
              19.044123
            ],
            [
              73.024477,
              19.044082
            ],
            [
              73.024385,
              19.044027
            ],
            [
              73.024305,
              19.043958
            ],
            [
              73.02424,
              19.043878
            ],
            [
              73.024193,
              19.04379
            ],
            [
              73.024164,
              19.043697
            ],
            [
              73.024154,
              19.0436
            ],
            [
              73.024164,
              19.043503
            ],
            [
              73.024193,
              19.04341
            ],
            [
              73.02424,
              19.043322
            ],
            [
              73.024305,
              19.043242
            ],
            [
              73.024385,
              19.043173
            ],
            [
              73.024477,
              19.043118
            ],
            [
              73.024579,
              19.043077
            ],
            [
              73.024688,
              19.043052
            ],
            [
              73.0248,
              19.043043
            ],
            [
              73.024912,
              19.043052
            ],
            [
              73.025021,
              19.043077
            ],
            [
              73.025123,
              19.043118
            ],
            [
              73.025215,
              19.043173
            ],
            [
              73.025295,
              19.043242
            ],
            [
              73.02536,
              19.043322
            ],
            [
              73.025407,
              19.04341
            ],
            [
              73.025436,
              19.043503
            ],
            [
              73.025446,
              19.0436
            ]
          ]
        ]
      }
    },
    {
      "type": "Feature",
      "properties": {
        "feature_id": "PAVILION_WEST_01",
        "name": "Main Pavilion, Corporate Hospitality & Media Centre",
        "category": "main_pavilion",
        "facilities": [
          "Corporate Luxury Boxes",
          "Broadcasting & Media Control Room",
          "Player Dressing Suites",
          "Event Operations Command Centre",
          "Fire & Evacuation Monitoring Station"
        ],
        "synthetic": true
      },
      "geometry": {
        "type": "Polygon",
        "coordinates": [
          [
            [
              73.023517,
              19.043106
            ],
            [
              73.02385,
              19.043106
            ],
            [
              73.02385,
              19.044094
            ],
            [
              73.023517,
              19.044094
            ],
            [
              73.023517,
              19.043106
            ]
          ]
        ]
      }
    },
    {
      "type": "Feature",
      "properties": {
        "feature_id": "PITCH_TURF_01",
        "name": "Central Playing Field & Turf Wicket",
        "category": "playing_field",
        "surface": "natural_bermuda_grass",
        "field_dimensions": "136m x 124m oval",
        "synthetic": true
      },
      "geometry": {
        "type": "Polygon",
        "coordinates": [
          [
            [
              73.025446,
              19.0436
            ],
            [
              73.025436,
              19.043697
            ],
            [
              73.025407,
              19.04379
            ],
            [
              73.02536,
              19.043878
            ],
            [
              73.025295,
              19.043958
            ],
            [
              73.025215,
              19.044027
            ],
            [
              73.025123,
              19.044082
            ],
            [
              73.025021,
              19.044123
            ],
            [
              73.024912,
              19.044148
            ],
            [
              73.0248,
              19.044157
            ],
            [
              73.024688,
              19.044148
            ],
            [
              73.024579,
              19.044123
            ],
            [
              73.024477,
              19.044082
            ],
            [
              73.024385,
              19.044027
            ],
            [
              73.024305,
              19.043958
            ],
            [
              73.02424,
              19.043878
            ],
            [
              73.024193,
              19.04379
            ],
            [
              73.024164,
              19.043697
            ],
            [
              73.024154,
              19.0436
            ],
            [
              73.024164,
              19.043503
            ],
            [
              73.024193,
              19.04341
            ],
            [
              73.02424,
              19.043322
            ],
            [
              73.024305,
              19.043242
            ],
            [
              73.024385,
              19.043173
            ],
            [
              73.024477,
              19.043118
            ],
            [
              73.024579,
              19.043077
            ],
            [
              73.024688,
              19.043052
            ],
            [
              73.0248,
              19.043043
            ],
            [
              73.024912,
              19.043052
            ],
            [
              73.025021,
              19.043077
            ],
            [
              73.025123,
              19.043118
            ],
            [
              73.025215,
              19.043173
            ],
            [
              73.025295,
              19.043242
            ],
            [
              73.02536,
              19.043322
            ],
            [
              73.025407,
              19.04341
            ],
            [
              73.025436,
              19.043503
            ],
            [
              73.025446,
              19.0436
            ]
          ]
        ]
      }
    },
    {
      "type": "Feature",
      "properties": {
        "gate_id": "DUMMY_GATE_A",
        "gate_name": "North Public Entry",
        "gate_type": "public",
        "access_role": "general_attendance",
        "nominal_throughput_pax_hr": 14000,
        "turnstiles_count": 14,
        "turnstile_type": "optical_biometric_barcode",
        "synthetic": true,
        "notes": "Demonstration scenario gate representation. Does not imply exhaustive stadium inventory."
      },
      "geometry": {
        "type": "Point",
        "coordinates": [
          73.0248,
          19.045037
        ]
      }
    },
    {
      "type": "Feature",
      "properties": {
        "gate_id": "DUMMY_GATE_B",
        "gate_name": "VIP / Official Entry",
        "gate_type": "vip",
        "access_role": "official_access",
        "nominal_throughput_pax_hr": 3500,
        "turnstiles_count": 4,
        "turnstile_type": "rfid_nfc_secure_corridor",
        "synthetic": true,
        "notes": "Demonstration scenario gate representation. Positioned adjacent to West Pavilion."
      },
      "geometry": {
        "type": "Point",
        "coordinates": [
          73.02328,
          19.0436
        ]
      }
    },
    {
      "type": "Feature",
      "properties": {
        "gate_id": "DUMMY_GATE_C",
        "gate_name": "Service / Operations Entry",
        "gate_type": "service",
        "access_role": "operations_access",
        "nominal_throughput_pax_hr": 1800,
        "vehicle_clearance": "fire_tenders_and_broadcast_heavy_vehicles",
        "synthetic": true,
        "notes": "Demonstration scenario gate representation. Serves emergency logistics corridor."
      },
      "geometry": {
        "type": "Point",
        "coordinates": [
          73.0248,
          19.042163
        ]
      }
    }
  ]
}